[{"OBJECT_NAME":"STARLINK-31765","OBJECT_ID":"2024-080D","EPOCH":"2026-03-09T07:06:43.298208","MEAN_MOTION":15.27581172,"ECCENTRICITY":0.0001372,"INCLINATION":43.0055,"RA_OF_ASC_NODE":36.5718,"ARG_OF_PERICENTER":264.6556,"MEAN_ANOMALY":95.4139,"EPHEMERIS_TYPE":0,"CLASSIFICATION_TYPE":"U","NORAD_CAT_ID":59604,"ELEMENT_SET_NO":999,"REV_AT_EPOCH":10451,"BSTAR":-0.00012668251,"MEAN_MOTION_DOT":-3.747e-5,"MEAN_MOTION_DDOT":0},{"OBJECT_NAME":"YAOGAN-43 01D","OBJECT_ID":"2024-148D","EPOCH":"2026-03-09T10:27:16.254720","MEAN_MOTION":15.28369377,"ECCENTRICITY":0.00025569,"INCLINATION":35.001,"RA_OF_ASC_NODE":61.7102,"ARG_OF_PERICENTER":326.2473,"MEAN_ANOMALY":33.808,"EPHEMERIS_TYPE":0,"CLASSIFICATION_TYPE":"U","NORAD_CAT_ID":60461,"ELEMENT_SET_NO":999,"REV_AT_EPOCH":8700,"BSTAR":0.00037765912,"MEAN_MOTION_DOT":0.00010676,"MEAN_MOTION_DDOT":0}]
