STARLINK-31765          
1 59604U 24080D   26068.29633447 -.00003747  00000+0 -12668-3 0  9996
2 59604  43.0055  36.5718 0001372 264.6556  95.4139 15.27581172104511
YAOGAN-43 01D           
1 60461U 24148D   26068.43560480  .00010676  00000+0  37766-3 0  9999
2 60461  35.0010  61.7102 0002556 326.2473  33.8080 15.28369377 87008
